start=new Date('2022-12-31T00:00:00.000Z').valueOf();
sats=[{"DECAY_DATE":null,"PERIAPSIS":"562.644","ARG_OF_PERICENTER":"344.0359","FILE":"3726788","BSTAR":"0.00015981000000","OBJECT_NAME":"STARLINK-4446","RA_OF_ASC_NODE":"123.0786","CENTER_NAME":"EARTH","MEAN_MOTION_DOT":"0.00001996","OBJECT_TYPE":"PAYLOAD","EPHEMERIS_TYPE":"0","NORAD_CAT_ID":"53505","LAUNCH_DATE":"2022-08-12","APOAPSIS":"563.194","REF_FRAME":"TEME","MEAN_MOTION_DDOT":"0.0000000000000","PERIOD":"95.918","TLE_LINE2":"2 53505  97.6507 123.0786 0000396 344.0359  16.0853 15.01290013 21421","INCLINATION":"97.6507","SITE":"AFWTR","TLE_LINE1":"1 53505U 22099AS  22364.58310774  .00001996  00000-0  15981-3 0  9994","COUNTRY_CODE":"US","MEAN_MOTION":"15.01290013","TIME_SYSTEM":"UTC","CLASSIFICATION_TYPE":"U","EPOCH":"2022-12-30T13:59:40.508736","RCS_SIZE":"LARGE","REV_AT_EPOCH":"2142","MEAN_ANOMALY":"16.0853","ELEMENT_SET_NO":"999","ECCENTRICITY":"0.00003960","SEMIMAJOR_AXIS":"6941.054","MEAN_ELEMENT_THEORY":"SGP4","GP_ID":"221763757","OBJECT_ID":"2022-099AS"},{"REF_FRAME":"TEME","APOAPSIS":"563.590","PERIOD":"95.919","MEAN_MOTION_DDOT":"0.0000000000000","NORAD_CAT_ID":"53506","LAUNCH_DATE":"2022-08-12","OBJECT_TYPE":"PAYLOAD","MEAN_MOTION_DOT":"0.00004599","CENTER_NAME":"EARTH","EPHEMERIS_TYPE":"0","FILE":"3727146","PERIAPSIS":"562.371","ARG_OF_PERICENTER":"22.4930","DECAY_DATE":null,"RA_OF_ASC_NODE":"123.2744","OBJECT_NAME":"STARLINK-4437","BSTAR":"0.00036229000000","MEAN_ELEMENT_THEORY":"SGP4","SEMIMAJOR_AXIS":"6941.116","ECCENTRICITY":"0.00008780","OBJECT_ID":"2022-099AT","GP_ID":"221796573","REV_AT_EPOCH":"2145","MEAN_ANOMALY":"337.6333","ELEMENT_SET_NO":"999","TIME_SYSTEM":"UTC","MEAN_MOTION":"15.01270057","RCS_SIZE":"LARGE","EPOCH":"2022-12-30T18:50:37.456800","CLASSIFICATION_TYPE":"U","INCLINATION":"97.6517","TLE_LINE2":"2 53506  97.6517 123.2744 0000878  22.4930 337.6333 15.01270057 21450","COUNTRY_CODE":"US","SITE":"AFWTR","TLE_LINE1":"1 53506U 22099AT  22364.78515575  .00004599  00000-0  36229-3 0  9993"},{"RA_OF_ASC_NODE":"123.2729","BSTAR":"0.00072623000000","OBJECT_NAME":"STARLINK-4444","ARG_OF_PERICENTER":"23.4911","PERIAPSIS":"562.797","FILE":"3727146","DECAY_DATE":null,"EPHEMERIS_TYPE":"0","MEAN_MOTION_DOT":"0.00009285","OBJECT_TYPE":"PAYLOAD","CENTER_NAME":"EARTH","LAUNCH_DATE":"2022-08-12","NORAD_CAT_ID":"53507","PERIOD":"95.918","MEAN_MOTION_DDOT":"0.0000000000000","REF_FRAME":"TEME","APOAPSIS":"563.119","COUNTRY_CODE":"US","TLE_LINE1":"1 53507U 22099AU  22364.78121201  .00009285  00000-0  72623-3 0  9998","SITE":"AFWTR","TLE_LINE2":"2 53507  97.6504 123.2729 0000232  23.4911 336.6324 15.01277319 21451","INCLINATION":"97.6504","EPOCH":"2022-12-30T18:44:56.717664","RCS_SIZE":"LARGE","CLASSIFICATION_TYPE":"U","TIME_SYSTEM":"UTC","MEAN_MOTION":"15.01277319","ELEMENT_SET_NO":"999","MEAN_ANOMALY":"336.6324","REV_AT_EPOCH":"2145","GP_ID":"221796337","OBJECT_ID":"2022-099AU","MEAN_ELEMENT_THEORY":"SGP4","ECCENTRICITY":"0.00002320","SEMIMAJOR_AXIS":"6941.093"},{"EPHEMERIS_TYPE":"0","CENTER_NAME":"EARTH","MEAN_MOTION_DOT":"0.00006521","OBJECT_TYPE":"PAYLOAD","BSTAR":"0.00051183000000","OBJECT_NAME":"STARLINK-4443","RA_OF_ASC_NODE":"123.0830","DECAY_DATE":null,"ARG_OF_PERICENTER":"28.0122","PERIAPSIS":"562.292","FILE":"3726788","MEAN_MOTION_DDOT":"0.0000000000000","PERIOD":"95.919","APOAPSIS":"563.721","REF_FRAME":"TEME","LAUNCH_DATE":"2022-08-12","NORAD_CAT_ID":"53508","CLASSIFICATION_TYPE":"U","EPOCH":"2022-12-30T14:02:21.301728","RCS_SIZE":"LARGE","MEAN_MOTION":"15.01261709","TIME_SYSTEM":"UTC","TLE_LINE1":"1 53508U 22099AV  22364.58496877  .00006521  00000-0  51183-3 0  9999","SITE":"AFWTR","COUNTRY_CODE":"US","TLE_LINE2":"2 53508  97.6511 123.0830 0001029  28.0122 332.1158 15.01261709 21420","INCLINATION":"97.6511","GP_ID":"221764050","OBJECT_ID":"2022-099AV","ECCENTRICITY":"0.00010290","SEMIMAJOR_AXIS":"6941.142","MEAN_ELEMENT_THEORY":"SGP4","ELEMENT_SET_NO":"999","REV_AT_EPOCH":"2142","MEAN_ANOMALY":"332.1158"},{"NORAD_CAT_ID":"53509","LAUNCH_DATE":"2022-08-12","REF_FRAME":"TEME","APOAPSIS":"563.421","PERIOD":"95.919","MEAN_MOTION_DDOT":"0.0000000000000","ARG_OF_PERICENTER":"270.9947","PERIAPSIS":"562.534","FILE":"3727146","DECAY_DATE":null,"RA_OF_ASC_NODE":"123.2586","BSTAR":"0.00050870000000","OBJECT_NAME":"STARLINK-4402","MEAN_MOTION_DOT":"0.00006483","OBJECT_TYPE":"PAYLOAD","CENTER_NAME":"EARTH","EPHEMERIS_TYPE":"0","MEAN_ANOMALY":"89.1204","REV_AT_EPOCH":"2145","ELEMENT_SET_NO":"999","MEAN_ELEMENT_THEORY":"SGP4","ECCENTRICITY":"0.00006390","SEMIMAJOR_AXIS":"6941.113","GP_ID":"221796334","OBJECT_ID":"2022-099AW","TLE_LINE2":"2 53509  97.6517 123.2586 0000639 270.9947  89.1204 15.01271055 21455","INCLINATION":"97.6517","COUNTRY_CODE":"US","TLE_LINE1":"1 53509U 22099AW  22364.77774428  .00006483  00000-0  50870-3 0  9991","SITE":"AFWTR","TIME_SYSTEM":"UTC","MEAN_MOTION":"15.01271055","EPOCH":"2022-12-30T18:39:57.105792","RCS_SIZE":"LARGE","CLASSIFICATION_TYPE":"U"},{"MEAN_ELEMENT_THEORY":"SGP4","SEMIMAJOR_AXIS":"6941.121","ECCENTRICITY":"0.00008540","OBJECT_ID":"2022-099AX","GP_ID":"221764060","MEAN_ANOMALY":"29.0177","REV_AT_EPOCH":"2142","ELEMENT_SET_NO":"999","TIME_SYSTEM":"UTC","MEAN_MOTION":"15.01268228","RCS_SIZE":"LARGE","EPOCH":"2022-12-30T13:54:21.491424","CLASSIFICATION_TYPE":"U","INCLINATION":"97.6507","TLE_LINE2":"2 53510  97.6507 123.0631 0000854 331.1000  29.0177 15.01268228 21421","COUNTRY_CODE":"US","TLE_LINE1":"1 53510U 22099AX  22364.57941541  .00012997  00000-0  10144-2 0  9999","SITE":"AFWTR","REF_FRAME":"TEME","APOAPSIS":"563.579","PERIOD":"95.919","MEAN_MOTION_DDOT":"0.0000000000000","NORAD_CAT_ID":"53510","LAUNCH_DATE":"2022-08-12","OBJECT_TYPE":"PAYLOAD","MEAN_MOTION_DOT":"0.00012997","CENTER_NAME":"EARTH","EPHEMERIS_TYPE":"0","FILE":"3726789","ARG_OF_PERICENTER":"331.1000","PERIAPSIS":"562.394","DECAY_DATE":null,"RA_OF_ASC_NODE":"123.0631","OBJECT_NAME":"STARLINK-4441","BSTAR":"0.00101440000000"},{"EPOCH":"2022-12-30T17:53:29.331168","RCS_SIZE":"LARGE","CLASSIFICATION_TYPE":"U","TIME_SYSTEM":"UTC","MEAN_MOTION":"15.08829781","COUNTRY_CODE":"US","TLE_LINE1":"1 53527U 22101A   22364.74547837  .00004377  00000-0  29303-3 0  9991","SITE":"AFETR","TLE_LINE2":"2 53527  53.2160 263.7523 0002121  45.4387 314.6778 15.08829781 20294","INCLINATION":"53.2160","GP_ID":"221793458","OBJECT_ID":"2022-101A","MEAN_ELEMENT_THEORY":"SGP4","ECCENTRICITY":"0.00021210","SEMIMAJOR_AXIS":"6917.912","ELEMENT_SET_NO":"999","REV_AT_EPOCH":"2029","MEAN_ANOMALY":"314.6778","EPHEMERIS_TYPE":"0","MEAN_MOTION_DOT":"0.00004377","OBJECT_TYPE":"PAYLOAD","CENTER_NAME":"EARTH","RA_OF_ASC_NODE":"263.7523","BSTAR":"0.00029303000000","OBJECT_NAME":"STARLINK-4511","ARG_OF_PERICENTER":"45.4387","PERIAPSIS":"538.309","FILE":"3726958","DECAY_DATE":null,"PERIOD":"95.438","MEAN_MOTION_DDOT":"0.0000000000000","REF_FRAME":"TEME","APOAPSIS":"541.244","LAUNCH_DATE":"2022-08-19","NORAD_CAT_ID":"53527"},{"OBJECT_NAME":"STARLINK-4503","BSTAR":"0.00025839000000","RA_OF_ASC_NODE":"263.7426","DECAY_DATE":null,"FILE":"3726958","PERIAPSIS":"538.080","ARG_OF_PERICENTER":"34.1668","EPHEMERIS_TYPE":"0","CENTER_NAME":"EARTH","OBJECT_TYPE":"PAYLOAD","MEAN_MOTION_DOT":"0.00003825","LAUNCH_DATE":"2022-08-19","NORAD_CAT_ID":"53528","MEAN_MOTION_DDOT":"0.0000000000000","PERIOD":"95.438","APOAPSIS":"541.480","REF_FRAME":"TEME","TLE_LINE1":"1 53528U 22101B   22364.74915774  .00003825  00000-0  25839-3 0  9998","SITE":"AFETR","COUNTRY_CODE":"US","INCLINATION":"53.2178","TLE_LINE2":"2 53528  53.2178 263.7426 0002457  34.1668 325.9482 15.08828747 20293","CLASSIFICATION_TYPE":"U","RCS_SIZE":"LARGE","EPOCH":"2022-12-30T17:58:47.228736","MEAN_MOTION":"15.08828747","TIME_SYSTEM":"UTC","ELEMENT_SET_NO":"999","MEAN_ANOMALY":"325.9482","REV_AT_EPOCH":"2029","OBJECT_ID":"2022-101B","GP_ID":"221793132","SEMIMAJOR_AXIS":"6917.915","ECCENTRICITY":"0.00024570","MEAN_ELEMENT_THEORY":"SGP4"},{"NORAD_CAT_ID":"53529","LAUNCH_DATE":"2022-08-19","REF_FRAME":"TEME","APOAPSIS":"540.868","PERIOD":"95.437","MEAN_MOTION_DDOT":"0.0000000000000","FILE":"3726959","ARG_OF_PERICENTER":"71.8829","PERIAPSIS":"538.577","DECAY_DATE":null,"RA_OF_ASC_NODE":"263.7691","OBJECT_NAME":"STARLINK-4478","BSTAR":"0.00100280000000","OBJECT_TYPE":"PAYLOAD","MEAN_MOTION_DOT":"0.00015711","CENTER_NAME":"EARTH","EPHEMERIS_TYPE":"0","MEAN_ANOMALY":"288.2344","REV_AT_EPOCH":"2029","ELEMENT_SET_NO":"999","MEAN_ELEMENT_THEORY":"SGP4","SEMIMAJOR_AXIS":"6917.858","ECCENTRICITY":"0.00016560","OBJECT_ID":"2022-101C","GP_ID":"221793470","INCLINATION":"53.2150","TLE_LINE2":"2 53529  53.2150 263.7691 0001656  71.8829 288.2344 15.08847449 20293","COUNTRY_CODE":"US","SITE":"AFETR","TLE_LINE1":"1 53529U 22101C   22364.74181319  .00015711  00000-0  10028-2 0  9999","TIME_SYSTEM":"UTC","MEAN_MOTION":"15.08847449","RCS_SIZE":"LARGE","EPOCH":"2022-12-30T17:48:12.659616","CLASSIFICATION_TYPE":"U"},{"DECAY_DATE":null,"ARG_OF_PERICENTER":"68.3535","PERIAPSIS":"538.535","FILE":"3726959","BSTAR":"0.00045686000000","OBJECT_NAME":"STARLINK-4482","RA_OF_ASC_NODE":"263.7969","CENTER_NAME":"EARTH","MEAN_MOTION_DOT":"0.00006989","OBJECT_TYPE":"PAYLOAD","EPHEMERIS_TYPE":"0","NORAD_CAT_ID":"53530","LAUNCH_DATE":"2022-08-19","APOAPSIS":"541.009","REF_FRAME":"TEME","MEAN_MOTION_DDOT":"0.0000000000000","PERIOD":"95.438","TLE_LINE2":"2 53530  53.2163 263.7969 0001788  68.3535 291.7648 15.08831268 20296","INCLINATION":"53.2163","SITE":"AFETR","TLE_LINE1":"1 53530U 22101D   22364.73540596  .00006989  00000-0  45686-3 0  9992","COUNTRY_CODE":"US","MEAN_MOTION":"15.08831268","TIME_SYSTEM":"UTC","CLASSIFICATION_TYPE":"U","EPOCH":"2022-12-30T17:38:59.074944","RCS_SIZE":"LARGE","MEAN_ANOMALY":"291.7648","REV_AT_EPOCH":"2029","ELEMENT_SET_NO":"999","ECCENTRICITY":"0.00017880","SEMIMAJOR_AXIS":"6917.907","MEAN_ELEMENT_THEORY":"SGP4","GP_ID":"221793145","OBJECT_ID":"2022-101D"}];
